{
  "type": "FeatureCollection",
  "features": [
    {
      "type": "Feature",
      "properties": {
        "norad_id": 41589,
        "name": "EUTELSAT 117 WEST B (WAAS/PRN 131)",
        "group": "gnss",
        "lat": -0.006803975845200141,
        "lon": 97.63302843181994,
        "alt_km": 35785.16393601745,
        "timestamp": "2025-12-13T08:49:15.928933+00:00",
        "meta_object_name": "EUTELSAT 117 WEST B (WAAS/PRN 131)",
        "meta_object_id": "2016-038B",
        "meta_epoch": "2025-12-12T23:11:46.195296",
        "meta_mean_motion": 1.00271866,
        "meta_eccentricity": 2.512e-05,
        "meta_inclination": 0.011,
        "meta_ra_of_asc_node": 153.7448,
        "meta_arg_of_pericenter": 269.9053,
        "meta_mean_anomaly": 249.2194,
        "meta_ephemeris_type": 0,
        "meta_classification_type": "U",
        "meta_norad_cat_id": 41589,
        "meta_element_set_no": 999,
        "meta_rev_at_epoch": 3479,
        "meta_bstar": 0,
        "meta_mean_motion_dot": 1e-08,
        "meta_mean_motion_ddot": 0,
        "tle_line1": "1 41589U 16038B   25346.96650689  .00000001  00000+0  00000+0 0  9993",
        "tle_line2": "2 41589   0.0110 153.7448 0000251 269.9053 249.2194  1.00271866 34790"
      },
      "geometry": {
        "type": "Point",
        "coordinates": [
          97.63302843181994,
          -0.006803975845200141
        ]
      }
    },
    {
      "type": "Feature",
      "properties": {
        "norad_id": 41859,
        "name": "GSAT0207 (GALILEO 15)",
        "group": "gnss",
        "lat": -8.824770848717078,
        "lon": 100.06986174856937,
        "alt_km": 23217.606362809347,
        "timestamp": "2025-12-13T08:49:15.928947+00:00",
        "meta_object_name": "GSAT0207 (GALILEO 15)",
        "meta_object_id": "2016-069A",
        "meta_epoch": "2025-12-12T05:05:06.598752",
        "meta_mean_motion": 1.70474433,
        "meta_eccentricity": 0.00022337,
        "meta_inclination": 55.3817,
        "meta_ra_of_asc_node": 106.2648,
        "meta_arg_of_pericenter": 322.8614,
        "meta_mean_anomaly": 37.0934,
        "meta_ephemeris_type": 0,
        "meta_classification_type": "U",
        "meta_norad_cat_id": 41859,
        "meta_element_set_no": 999,
        "meta_rev_at_epoch": 5621,
        "meta_bstar": 0,
        "meta_mean_motion_dot": 5e-08,
        "meta_mean_motion_ddot": 0,
        "tle_line1": "1 41859U 16069A   25346.21188193  .00000005  00000+0  00000+0 0  9995",
        "tle_line2": "2 41859  55.3817 106.2648 0002233 322.8614  37.0934  1.70474433 56214"
      },
      "geometry": {
        "type": "Point",
        "coordinates": [
          100.06986174856937,
          -8.824770848717078
        ]
      }
    },
    {
      "type": "Feature",
      "properties": {
        "norad_id": 41860,
        "name": "GSAT0212 (GALILEO 16)",
        "group": "gnss",
        "lat": 53.92180990185326,
        "lon": 177.52571371652294,
        "alt_km": 23211.879225626653,
        "timestamp": "2025-12-13T08:49:15.928958+00:00",
        "meta_object_name": "GSAT0212 (GALILEO 16)",
        "meta_object_id": "2016-069B",
        "meta_epoch": "2025-12-11T11:29:42.448992",
        "meta_mean_motion": 1.70474595,
        "meta_eccentricity": 0.00021636,
        "meta_inclination": 55.3791,
        "meta_ra_of_asc_node": 106.2805,
        "meta_arg_of_pericenter": 27.6057,
        "meta_mean_anomaly": 332.3763,
        "meta_ephemeris_type": 0,
        "meta_classification_type": "U",
        "meta_norad_cat_id": 41860,
        "meta_element_set_no": 999,
        "meta_rev_at_epoch": 5645,
        "meta_bstar": 0,
        "meta_mean_motion_dot": 8e-08,
        "meta_mean_motion_ddot": 0,
        "tle_line1": "1 41860U 16069B   25345.47896353  .00000008  00000+0  00000+0 0  9991",
        "tle_line2": "2 41860  55.3791 106.2805 0002163  27.6057 332.3763  1.70474595 56451"
      },
      "geometry": {
        "type": "Point",
        "coordinates": [
          177.52571371652294,
          53.92180990185326
        ]
      }
    },
    {
      "type": "Feature",
      "properties": {
        "norad_id": 41861,
        "name": "GSAT0213 (GALILEO 17)",
        "group": "gnss",
        "lat": -27.00470620286497,
        "lon": -53.18386806768374,
        "alt_km": 23223.234777162645,
        "timestamp": "2025-12-13T08:49:15.928972+00:00",
        "meta_object_name": "GSAT0213 (GALILEO 17)",
        "meta_object_id": "2016-069C",
        "meta_epoch": "2025-12-11T06:14:19.190112",
        "meta_mean_motion": 1.70474845,
        "meta_eccentricity": 0.00023572,
        "meta_inclination": 55.3813,
        "meta_ra_of_asc_node": 106.2942,
        "meta_arg_of_pericenter": 283.5833,
        "meta_mean_anomaly": 76.361,
        "meta_ephemeris_type": 0,
        "meta_classification_type": "U",
        "meta_norad_cat_id": 41861,
        "meta_element_set_no": 999,
        "meta_rev_at_epoch": 5631,
        "meta_bstar": 0,
        "meta_mean_motion_dot": 9e-08,
        "meta_mean_motion_ddot": 0,
        "tle_line1": "1 41861U 16069C   25345.25994433  .00000009  00000+0  00000+0 0  9997",
        "tle_line2": "2 41861  55.3813 106.2942 0002357 283.5833  76.3610  1.70474845 56318"
      },
      "geometry": {
        "type": "Point",
        "coordinates": [
          -53.18386806768374,
          -27.00470620286497
        ]
      }
    },
    {
      "type": "Feature",
      "properties": {
        "norad_id": 41862,
        "name": "GSAT0214 (GALILEO 18)",
        "group": "gnss",
        "lat": 43.083185500668314,
        "lon": -113.98608438126766,
        "alt_km": 23220.853916557,
        "timestamp": "2025-12-13T08:49:15.928983+00:00",
        "meta_object_name": "GSAT0214 (GALILEO 18)",
        "meta_object_id": "2016-069D",
        "meta_epoch": "2025-12-12T13:53:54.735936",
        "meta_mean_motion": 1.70474744,
        "meta_eccentricity": 0.00013694,
        "meta_inclination": 55.3802,
        "meta_ra_of_asc_node": 106.2504,
        "meta_arg_of_pericenter": 290.3791,
        "meta_mean_anomaly": 69.576,
        "meta_ephemeris_type": 0,
        "meta_classification_type": "U",
        "meta_norad_cat_id": 41862,
        "meta_element_set_no": 999,
        "meta_rev_at_epoch": 5646,
        "meta_bstar": 0,
        "meta_mean_motion_dot": 4e-08,
        "meta_mean_motion_ddot": 0,
        "tle_line1": "1 41862U 16069D   25346.57910574  .00000004  00000+0  00000+0 0  9993",
        "tle_line2": "2 41862  55.3802 106.2504 0001369 290.3791  69.5760  1.70474744 56466"
      },
      "geometry": {
        "type": "Point",
        "coordinates": [
          -113.98608438126766,
          43.083185500668314
        ]
      }
    },
    {
      "type": "Feature",
      "properties": {
        "norad_id": 42709,
        "name": "SES-15 (WAAS/PRN 133)",
        "group": "gnss",
        "lat": 0.035817410389150095,
        "lon": 85.4316561268841,
        "alt_km": 35787.24785626883,
        "timestamp": "2025-12-13T08:49:15.928995+00:00",
        "meta_object_name": "SES-15 (WAAS/PRN 133)",
        "meta_object_id": "2017-026A",
        "meta_epoch": "2025-12-12T23:08:16.530144",
        "meta_mean_motion": 1.00272327,
        "meta_eccentricity": 6.925e-05,
        "meta_inclination": 0.0181,
        "meta_ra_of_asc_node": 343.7462,
        "meta_arg_of_pericenter": 219.1119,
        "meta_mean_anomaly": 96.942,
        "meta_ephemeris_type": 0,
        "meta_classification_type": "U",
        "meta_norad_cat_id": 42709,
        "meta_element_set_no": 999,
        "meta_rev_at_epoch": 556,
        "meta_bstar": 0,
        "meta_mean_motion_dot": 7.2e-07,
        "meta_mean_motion_ddot": 0,
        "tle_line1": "1 42709U 17026A   25346.96408021  .00000072  00000+0  00000+0 0  9995",
        "tle_line2": "2 42709   0.0181 343.7462 0000692 219.1119  96.9420  1.00272327  5564"
      },
      "geometry": {
        "type": "Point",
        "coordinates": [
          85.4316561268841,
          0.035817410389150095
        ]
      }
    },
    {
      "type": "Feature",
      "properties": {
        "norad_id": 42738,
        "name": "QZS-2 (QZSS/PRN 194)",
        "group": "gnss",
        "lat": 37.529654608620056,
        "lon": -1.6101539307755286,
        "alt_km": 38778.876276765106,
        "timestamp": "2025-12-13T08:49:15.929007+00:00",
        "meta_object_name": "QZS-2 (QZSS/PRN 194)",
        "meta_object_id": "2017-028A",
        "meta_epoch": "2025-12-12T13:53:50.460864",
        "meta_mean_motion": 1.00283091,
        "meta_eccentricity": 0.07575877,
        "meta_inclination": 39.7145,
        "meta_ra_of_asc_node": 245.886,
        "meta_arg_of_pericenter": 269.4736,
        "meta_mean_anomaly": 276.437,
        "meta_ephemeris_type": 0,
        "meta_classification_type": "U",
        "meta_norad_cat_id": 42738,
        "meta_element_set_no": 999,
        "meta_rev_at_epoch": 575,
        "meta_bstar": 0,
        "meta_mean_motion_dot": -1.9e-06,
        "meta_mean_motion_ddot": 0,
        "tle_line1": "1 42738U 17028A   25346.57905626 -.00000190  00000+0  00000+0 0  9991",
        "tle_line2": "2 42738  39.7145 245.8860 0757587 269.4736 276.4370  1.00283091  5754"
      },
      "geometry": {
        "type": "Point",
        "coordinates": [
          -1.6101539307755286,
          37.529654608620056
        ]
      }
    }
  ]
}